
STARLINK-1191           
1 45222U 20012AW  25016.60590046  .00015645  00000+0  10663-2 0  9992
2 45222  53.0543  78.9819 0001607  78.4402 281.6768 15.06419040271590
STARLINK-1212           
1 45223U 20012AX  25016.42537109  .00016027  00000+0  10921-2 0  9996
2 45223  53.0536  80.4455 0001448  84.8354 275.2800 15.06410096272507
STARLINK-1215           
1 45225U 20012AZ  25016.58009544  .00015339  00000+0  10452-2 0  9996
2 45225  53.0550  79.0928 0001577  82.0411 278.0757 15.06442858271592
STARLINK-1217           
1 45226U 20012BA  25016.45478604  .00017667  00000+0  12011-2 0  9999
2 45226  53.0542  79.6577 0001536 100.7720 259.3442 15.06426871272429
STARLINK-1221           
1 45227U 20012BB  25016.43781239  .00029087  00000+0  11613-2 0  9995
2 45227  53.0719  64.0380 0004755 101.7564 258.3967 15.24939266272652
STARLINK-1222           
1 45228U 20012BC  25016.54691990  .00014692  00000+0  10025-2 0  9994
2 45228  53.0541  79.2484 0001497 112.5035 247.6113 15.06423391271584
STARLINK-1226           
1 45229U 20012BD  25016.37736850  .00016948  00000+0  11533-2 0  9992
2 45229  53.0543  80.0042 0001517  98.3359 261.7802 15.06421117271564
STARLINK-1227           
1 45230U 20012BE  25016.57273186  .00017864  00000+0  12144-2 0  9991
2 45230  53.0538  79.1280 0001451  88.2846 271.8309 15.06422752271592
STARLINK-1235           
1 45232U 20012BG  25016.91667824  .00085532  00000+0  98366-3 0  9995
2 45232  53.0594  14.3334 0006945  64.9134 120.1562 15.61285274  5983
STARLINK-1238           
1 45233U 20012BH  25016.62892759  .00021643  00000+0  14668-2 0  9996
2 45233  53.0545  98.8663 0001557  66.9074 293.2078 15.06414760272243
STARLINK-1246           
1 45235U 20012BK  25016.65382090  .00016529  00000+0  11256-2 0  9990
2 45235  53.0540 118.7669 0001384 102.9359 257.1784 15.06410609272008
STARLINK-1247           
1 45236U 20012BL  25016.56904057  .00016536  00000+0  11258-2 0  9994
2 45236  53.0540  79.1446 0001526  76.1191 283.9967 15.06420127271595
STARLINK-1270           
1 45237U 20012BM  25016.39212624  .00017736  00000+0  12064-2 0  9997
2 45237  53.0553  79.9370 0001535 109.6839 250.4315 15.06405342271560
JCSAT-17                
1 45245U 20013A   25016.76785653 -.00000311  00000+0  00000+0 0  9991
2 45245   5.4889 351.8472 0004464 312.9946 224.0156  1.00271630 18052
GEO-KOMPSAT-2B          
1 45246U 20013B   25014.88799502 -.00000345  00000+0  00000+0 0  9998
2 45246   0.0076 177.3945 0002133 108.9338 276.1740  1.00268089 18081
MERIDIAN 9              
1 45254U 20015A   25016.04354263 -.00000094  00000+0  00000+0 0  9991
2 45254  65.0575  15.9985 6959299 285.9786  12.2464  2.00623157 35914
BEIDOU-3 G2             
1 45344U 20017A   25016.76684014 -.00000140  00000+0  00000+0 0  9994
2 45344   2.6190  36.7971 0003236 265.1987 170.5192  1.00272844 18085
COSMOS 2545 [GLONASS-M] 
1 45358U 20018A   25016.10011540 -.00000076  00000+0  00000+0 0  9994
2 45358  64.6493 330.5369 0010663 255.5855 104.2931  2.13102545 37642
STARLINK-1279           
1 45360U 20019A   25016.54970888 -.00001469  00000+0 -79766-4 0  9993
2 45360  53.0532 209.2329 0001471  89.9211 270.1947 15.06386052267267
STARLINK-1301           
1 45361U 20019B   25016.27232703  .00000078  00000+0  24119-4 0  9996
2 45361  53.0540 220.4800 0001216 102.8803 257.2321 15.06392291267090
STARLINK-1306           
1 45362U 20019C   25016.91552563  .00000595  00000+0  58866-4 0  9997
2 45362  53.0546 237.5940 0001953 101.2328 258.8881 15.06405995266907
STARLINK-1262           
1 45366U 20019G   25016.43635233 -.00000533  00000+0 -16866-4 0  9992
2 45366  53.0534 239.7421 0001832  89.6087 270.5112 15.06403029266840
STARLINK-1273           
1 45367U 20019H   25016.92289249  .00000558  00000+0  56315-4 0  9997
2 45367  53.0539 237.5609 0001414  93.3572 266.7579 15.06409127266914
STARLINK-1276           
1 45368U 20019J   25016.03087295  .00004807  00000+0  34108-3 0  9993
2 45368  53.0533 241.5635 0001237  92.3581 267.7549 15.06436025266785
STARLINK-1277           
1 45369U 20019K   25016.62072921  .00001177  00000+0  97912-4 0  9999
2 45369  53.0537 239.5433 0001692  88.6518 271.4665 15.06405384266860
STARLINK-1281           
1 45370U 20019L   25016.61696932  .00002722  00000+0  20152-3 0  9992
2 45370  53.0522 238.9309 0001666  96.3285 263.7893 15.06411331266876
STARLINK-1295           
1 45373U 20019P   25016.91667824  .01217150  00000+0  38772-1 0  9995
2 45373  53.0523 235.2404 0001251  84.3449  92.9144 15.29300158  5832
STARLINK-1300           
1 45374U 20019Q   25016.63907751  .00000516  00000+0  53554-4 0  9994
2 45374  53.0532 238.8308 0001587  91.7111 268.4060 15.06406403266870
STARLINK-1302           
1 45375U 20019R   25016.91920774  .00000735  00000+0  68235-4 0  9991
2 45375  53.0536 237.5768 0001355  96.6897 263.4247 15.06406932266913
STARLINK-1304           
1 45376U 20019S   25016.60589728 -.00004904  00000+0 -31060-3 0  9997
2 45376  53.0539 238.9797 0001378  84.3676 275.7470 15.06396895266862
STARLINK-1305           
1 45377U 20019T   25016.63170212 -.00000183  00000+0  66034-5 0  9990
2 45377  53.0528 238.8653 0001358  88.5541 271.5604 15.06406590266874
STARLINK-1319           
1 45379U 20019V   25015.89454022 -.00001105  00000+0 -55345-4 0  9991
2 45379  53.0530 242.1755 0001488  94.7537 265.3622 15.06383947266767
STARLINK-1207           
1 45380U 20019W   25016.91667824  .00331320  52026-4  10431-2 0  9991
2 45380  53.0406 189.0300 0005005 261.2642 212.8768 15.90862821  6040
STARLINK-1258           
1 45381U 20019X   25015.97008612 -.00000799  00000+0 -34748-4 0  9995
2 45381  53.0536 221.8355 0000822  89.1126 270.9957 15.06394301267040
STARLINK-1266           
1 45383U 20019Z   25015.83002114 -.00000564  00000+0 -18952-4 0  9992
2 45383  53.0532 222.4628 0001494  90.7785 269.3375 15.06392945267029
STARLINK-1267           
1 45384U 20019AA  25016.54516797  .00000857  00000+0  76427-4 0  9993
2 45384  53.0534 219.9114 0001313  95.5144 264.5995 15.06402098267122
STARLINK-1272           
1 45386U 20019AC  25016.28706736  .00001116  00000+0  93831-4 0  9997
2 45386  53.0537 220.4136 0001493  91.4910 268.6250 15.06402280267091
STARLINK-1274           
1 45387U 20019AD  25016.57458890  .00000555  00000+0  56141-4 0  9994
2 45387  53.0528 219.1216 0001504  95.4826 264.6335 15.06395871267131
STARLINK-1280           
1 45388U 20019AE  25016.01247569  .00001151  00000+0  96183-4 0  9996
2 45388  53.0539 241.6426 0001320  87.2095 272.9045 15.06398457266761
STARLINK-1283           
1 45389U 20019AF  25016.92104189  .00000766  00000+0  70281-4 0  9999
2 45389  53.0537 217.5647 0001592  93.4416 266.6755 15.06408388267195
STARLINK-1284           
1 45390U 20019AG  25016.56351911  .00001554  00000+0  12319-3 0  9991
2 45390  53.0521 219.1706 0001365  90.0540 270.0605 15.06411193267138
STARLINK-1291           
1 45393U 20019AK  25016.91667824  .00253278  00000+0  11047-2 0  9994
2 45393  53.0472 189.9162 0003695 241.9333 270.5221 15.83509517  6044
STARLINK-1292           
1 45394U 20019AL  25016.57088107 -.00000207  00000+0  50381-5 0  9998
2 45394  53.0535 219.1358 0001649  92.0520 268.0658 15.06402449266874
STARLINK-1297           
1 45395U 20019AM  25016.93210248  .00001207  00000+0  99889-4 0  9997
2 45395  53.0534 217.5158 0001383  92.2253 267.8895 15.06407914266371
STARLINK-1303           
1 45396U 20019AN  25016.33335648  .00128130  00000+0  11018-2 0  9995
2 45396  53.0486 202.7192 0000832  16.0125 332.4049 15.68448859267059
STARLINK-1307           
1 45397U 20019AP  25016.92473082  .00004188  00000+0  29982-3 0  9992
2 45397  53.0527 217.5492 0001556  83.0672 277.0494 15.06406448267012
STARLINK-1312           
1 45398U 20019AQ  25016.58561976 -.00002224  00000+0 -13045-3 0  9999
2 45398  53.0528 219.0685 0002142  84.2966 275.8267 15.06402461266896
STARLINK-1255           
1 45399U 20019AR  25016.49440193  .00000337  00000+0  41497-4 0  9991
2 45399  53.0536 209.4780 0001481  95.2569 264.8589 15.06401955267074
STARLINK-1213           
1 45400U 20019AS  25016.91667824  .00209628  00000+0  99017-3 0  9997
2 45400  53.0671 102.8386 0006356 340.6867 149.9834 15.81911909  6041
STARLINK-1256           
1 45401U 20019AT  25016.47939613  .00000533  00000+0  24853-4 0  9998
2 45401  53.0534 202.2366 0001098  93.0886 267.0242 15.37313852267173
STARLINK-1259           
1 45403U 20019AV  25016.91459338  .00000030  00000+0  20867-4 0  9993
2 45403  53.0523 207.5954 0001106  90.5568 269.5548 15.06402081267134
STARLINK-1260           
1 45404U 20019AW  25016.26217794  .00002189  00000+0  16568-3 0  9999
2 45404  53.0527 210.5200 0001422  96.7965 263.3186 15.06423612266948
STARLINK-1263           
1 45405U 20019AX  25016.51283332  .00000093  00000+0  25156-4 0  9995
2 45405  53.0534 209.3968 0001421  96.0264 264.0887 15.06395916266983
STARLINK-1265           
1 45406U 20019AY  25016.25481923  .00000363  00000+0  43272-4 0  9992
2 45406  53.0544 210.5542 0001486  87.1460 272.9699 15.06400195266948
STARLINK-1275           
1 45407U 20019AZ  25016.91667824  .00131809  00000+0  21815-2 0  9999
2 45407  53.0480 155.7343 0004251 163.8924  34.7288 15.51261509  5850
STARLINK-1278           
1 45408U 20019BA  25015.88346958  .00000459  00000+0  49711-4 0  9990
2 45408  53.0525 242.2252 0001393  95.9428 264.1720 15.06400448266474
STARLINK-1282           
1 45409U 20019BB  25016.91667824  .01253436  00000+0  29735-1 0  9991
2 45409  53.0500 205.9619 0001383  88.8022 255.4820 15.38579379  5820
STARLINK-1293           
1 45411U 20019BD  25016.90277531  .00000277  00000+0  21005-4 0  9992
2 45411  53.0541 201.4772 0001339  76.4994 283.6155 15.31124984267152
